NLLOC "./loc/Antarctic_event_Smith_et_al_2015_example_FPS_event/loc.Tom__RunNLLoc000.20090121.042009.grid0" "LOCATED" "Location completed."
SIGNATURE "Tom Hudson, BAS and University of Cambridge   NLLoc:v6.00.0 22Aug2018 09h22m23"
COMMENT "Control"
GRID  400 400 80  -10 -10 -0.4  0.05 0.05 0.05 PROB_DENSITY
SEARCH OCTREE nInitial 400 nEvaluated 200000 smallestNodeSide 0.007793/0.007793/0.003906 oct_tree_integral 5.831013e-02 scatter_volume 5.829081e-02
HYPOCENTER  x -1.61866 y -0.488682 z 1.73086  OT 9.18523  ix -1 iy -1 iz -1
GEOGRAPHIC  OT 2009 01 21  04 20   9.18523  Lat -78.1479 Long -84.0027 Depth 1.73086
QUALITY  Pmax 3.07305e+44 MFmin 33.671 MFmax 39.6283 RMS 0.0313947 Nphs 15 Gap 122.637 Dist 0.558808 Mamp  -9.9 0 Mdur  -9.9 0
VPVSRATIO  VpVsRatio 2.02965  Npair 5  Diff 0.17
STATISTICS  ExpectX -1.5905 Y -0.511462 Z 1.76691  CovXX 0.0317609 XY -0.0158621 XZ -0.00823176 YY 0.045313 YZ -0.00800493 ZZ 0.035838 EllAz1  234.913 Dip1  -28.6819 Len1  0.230986 Az2  252.03 Dip2  60.2118 Len2  0.383824 Len3  4.448637e-01
STAT_GEOG  ExpectLat -78.1482 Long -84.0015 Depth 1.76691
TRANSFORM  LAMBERT RefEllipsoid WGS-84  LatOrig -78.143580  LongOrig -83.932150  FirstStdParal -78.100000  SecondStdParal -78.200000  RotCW 0.000000
QML_OriginQuality  assocPhCt 15  usedPhCt 15  assocStaCt -1  usedStaCt 10  depthPhCt -1  stdErr 0.0313947  azGap 122.637  secAzGap 136.463  gtLevel -  minDist 0.558808 maxDist 4.9324 medDist 2.27818
QML_OriginUncertainty  horUnc -1  minHorUnc 0.221275  maxHorUnc 0.3582  azMaxHorUnc 146.566
FOCALMECH  Hyp  -78.1479 -84.0027 1.73086 Mech  0 0 0 mf  0 nObs 0
PHASE ID Ins Cmp On Pha  FM Date     HrMn   Sec     Err  ErrMag    Coda      Amp       Per  >   TTpred    Res       Weight    StaLoc(X  Y         Z)        SDist    SAzim  RAz  RDip RQual    Tcorr 
ST04   ?    ?    ? P      D 20090121 0420      9.79 GAU      0.01        -1        -1        -1 >    0.5925    0.0122    1.3589   -1.0722   -0.6056   -0.3070    0.5588 102.07 102.1 163.9  9     0.0000
ST04   ?    ?    ? S      ? 20090121 0420     10.35 GAU      0.02        -1        -1        -1 >    1.1619    0.0059    1.1081   -1.0722   -0.6056   -0.3070    0.5588 102.07 102.1 163.9  9     0.0000
ST02   ?    ?    ? P      D 20090121 0420     9.789 GAU      0.01        -1        -1        -1 >    0.6038   -0.0000    1.4121   -1.9637   -1.0978   -0.3070    0.7000 209.53 209.5 160.5  9     0.0000
ST02   ?    ?    ? S      ? 20090121 0420     10.34 GAU       0.1        -1        -1        -1 >    1.1841   -0.0263    0.7747   -1.9637   -1.0978   -0.3070    0.7000 209.53 209.5 160.6  9     0.0000
ST01   ?    ?    ? P      U 20090121 0420     9.808 GAU      0.01        -1        -1        -1 >    0.6212    0.0016    1.4008   -2.4536   -0.2054   -0.3070    0.8817 288.74 288.7 156.5  9     0.0000
ST01   ?    ?    ? S      ? 20090121 0420     10.38 GAU      0.02        -1        -1        -1 >    1.2185   -0.0257    1.0854   -2.4536   -0.2054   -0.3070    0.8817 288.74 288.7 156.5  9     0.0000
ST03   ?    ?    ? P      D 20090121 0420     9.882 GAU      0.02        -1        -1        -1 >    0.7009   -0.0041    1.3311   -1.4744   -1.9792   -0.3070    1.4975 174.47 174.5 144.3 10     0.0000
ST03   ?    ?    ? S      ? 20090121 0420     10.53 GAU       0.1        -1        -1        -1 >    1.3759   -0.0352    0.7477   -1.4744   -1.9792   -0.3070    1.4975 174.47 174.5 144.4 10     0.0000
ST05   ?    ?    ? P      D 20090121 0420     9.888 GAU      0.02        -1        -1        -1 >    0.7246   -0.0218    1.2792   -2.8545   -1.5795   -0.3070    1.6484 228.57 228.6 141.7 10     0.0000
ST05   ?    ?    ? S      ? 20090121 0420     10.61 GAU       0.5        -1        -1        -1 >    1.4227    0.0040    0.2209   -2.8545   -1.5795   -0.3070    1.6484 228.57 228.6 141.8 10     0.0000
ST10   ?    ?    ? P      U 20090121 0420     10.16 GAU      0.02        -1        -1        -1 >    0.9688    0.0109    1.1721    1.0778    0.6002   -0.3070    2.9080  68.01  68.0 124.0 10     0.0000
ST07   ?    ?    ? P      U 20090121 0420     10.36 GAU      0.01        -1        -1        -1 >    1.1963   -0.0176    1.1284    1.9669    1.0905   -0.3070    3.9179  66.23  66.2 116.8 10     0.0000
ST08   ?    ?    ? P      U 20090121 0420     10.39 GAU      0.02        -1        -1        -1 >    1.2065   -0.0038    1.1064    1.4764    1.9843   -0.3070    3.9617  51.38  51.4 116.6 10     0.0000
ST09   ?    ?    ? P      U 20090121 0420     10.29 GAU      0.02        -1        -1        -1 >    1.2460   -0.1442    0.4115    2.4544    0.1965   -0.3070    4.1303  80.45  80.5 115.6 10     0.0000
ST06   ?    ?    ? P      U 20090121 0420     10.48 GAU      0.01        -1        -1        -1 >    1.4373   -0.1395    0.4628    2.8589    1.5801   -0.3070    4.9324  65.20  65.2 112.1 10     0.0000
END_PHASE
END_NLLOC
